IRIDIUM 119             
1 42959U 17061E   25220.91257733  .00000061  00000+0  14846-4 0  9995
2 42959  86.4029 155.7835 0002048  79.7564 280.3863 14.34218036410058
IRIDIUM 107             
1 42960U 17061F   25221.07114189  .00000110  00000+0  32109-4 0  9999
2 42960  86.4030 155.7368 0001784  88.3586 271.7814 14.34218066410096
IRIDIUM 132             
1 42961U 17061G   25221.07748465  .00000110  00000+0  32100-4 0  9991
2 42961  86.4028 155.7158 0002140  86.3547 273.7893 14.34217502410085
IRIDIUM 136             
1 42962U 17061H   25220.89989177  .00000249  00000+0  81870-4 0  9999
2 42962  86.4030 155.7949 0002057  81.8658 278.2771 14.34218882410073
IRIDIUM 139             
1 42963U 17061J   25221.11554015  .00000121  00000+0  36155-4 0  9990
2 42963  86.4032 155.7621 0002009  88.8882 271.2544 14.34218158410118
IRIDIUM 125             
1 42964U 17061K   25221.52146367  .00000285  00000+0  94842-4 0  9991
2 42964  86.4032 155.6479 0001739  75.9999 284.1391 14.34219336410183
IRIDIUM 135             
1 43070U 17083A   25220.93744433  .00000143  00000+0  44157-4 0  9993
2 43070  86.3932  92.5682 0002358  87.1730 272.9735 14.34218349399390
IRIDIUM 138             
1 43071U 17083B   25221.10235118  .00000076  00000+0  20054-4 0  9994
2 43071  86.3920  92.1629 0002080  71.4297 288.7125 14.34217968399407
